ASTROCAST 0.1           
1 43798U 18099AS  26194.01283716  .00030554  00000+0  51994-3 0  9995
2 43798  97.4379 273.3471 0005662 138.1957 221.9729 15.51347315418439
ASTROCAST-0402          
1 55109U 23001DE  26194.22454342  .00005999  00000+0  21583-3 0  9997
2 55109  97.5588 287.8195 0006313 139.6739 220.4970 15.28981290148513
ASTROCAST-0401          
1 55110U 23001DF  26194.23946968  .00009290  00000+0  33714-3 0  9997
2 55110  97.5573 287.6418 0009533 113.9540 246.2699 15.28509299195181
ASTROCAST-0403          
1 55111U 23001DG  26194.06506638  .00017178  00000+0  55264-3 0  9993
2 55111  97.5627 288.7711 0004551 219.6541 140.4368 15.32298453148526
ASTROCAST-0404          
1 55112U 23001DH  26194.25794852  .00004670  00000+0  16959-3 0  9993
2 55112  97.5673 288.7848 0005018 251.9539 108.1154 15.28805619148510
