{"fetched_at":"2026-07-13T18:16:43.256Z","source":"https://celestrak.org/NORAD/elements/gp.php?NAME=ASTROCAST&FORMAT=JSON","constellation":"astrocast","records":[{"OBJECT_NAME":"ASTROCAST 0.1","OBJECT_ID":"2018-099AS","EPOCH":"2026-07-13T00:18:29.130624","CLASSIFICATION_TYPE":"U","MEAN_MOTION":15.51347315,"ECCENTRICITY":0.00056625,"INCLINATION":97.4379,"RA_OF_ASC_NODE":273.3471,"ARG_OF_PERICENTER":138.1957,"MEAN_ANOMALY":221.9729,"EPHEMERIS_TYPE":0,"NORAD_CAT_ID":43798,"ELEMENT_SET_NO":999,"REV_AT_EPOCH":41843,"BSTAR":0.00051994349,"MEAN_MOTION_DOT":0.00030554,"MEAN_MOTION_DDOT":0},{"OBJECT_NAME":"ASTROCAST-0402","OBJECT_ID":"2023-001DE","EPOCH":"2026-07-13T05:23:20.551488","CLASSIFICATION_TYPE":"U","MEAN_MOTION":15.2898129,"ECCENTRICITY":0.00063135,"INCLINATION":97.5588,"RA_OF_ASC_NODE":287.8195,"ARG_OF_PERICENTER":139.6739,"MEAN_ANOMALY":220.497,"EPHEMERIS_TYPE":0,"NORAD_CAT_ID":55109,"ELEMENT_SET_NO":999,"REV_AT_EPOCH":14851,"BSTAR":0.00021582979,"MEAN_MOTION_DOT":0.00005999,"MEAN_MOTION_DDOT":0},{"OBJECT_NAME":"ASTROCAST-0401","OBJECT_ID":"2023-001DF","EPOCH":"2026-07-13T05:44:50.180352","CLASSIFICATION_TYPE":"U","MEAN_MOTION":15.28509299,"ECCENTRICITY":0.00095336,"INCLINATION":97.5573,"RA_OF_ASC_NODE":287.6418,"ARG_OF_PERICENTER":113.954,"MEAN_ANOMALY":246.2699,"EPHEMERIS_TYPE":0,"NORAD_CAT_ID":55110,"ELEMENT_SET_NO":999,"REV_AT_EPOCH":19518,"BSTAR":0.0003371439,"MEAN_MOTION_DOT":0.0000929,"MEAN_MOTION_DDOT":0},{"OBJECT_NAME":"ASTROCAST-0403","OBJECT_ID":"2023-001DG","EPOCH":"2026-07-13T01:33:41.735232","CLASSIFICATION_TYPE":"U","MEAN_MOTION":15.32298453,"ECCENTRICITY":0.00045515,"INCLINATION":97.5627,"RA_OF_ASC_NODE":288.7711,"ARG_OF_PERICENTER":219.6541,"MEAN_ANOMALY":140.4368,"EPHEMERIS_TYPE":0,"NORAD_CAT_ID":55111,"ELEMENT_SET_NO":999,"REV_AT_EPOCH":14852,"BSTAR":0.00055264209,"MEAN_MOTION_DOT":0.00017178,"MEAN_MOTION_DDOT":0},{"OBJECT_NAME":"ASTROCAST-0404","OBJECT_ID":"2023-001DH","EPOCH":"2026-07-13T06:11:26.752128","CLASSIFICATION_TYPE":"U","MEAN_MOTION":15.28805619,"ECCENTRICITY":0.00050181,"INCLINATION":97.5673,"RA_OF_ASC_NODE":288.7848,"ARG_OF_PERICENTER":251.9539,"MEAN_ANOMALY":108.1154,"EPHEMERIS_TYPE":0,"NORAD_CAT_ID":55112,"ELEMENT_SET_NO":999,"REV_AT_EPOCH":14851,"BSTAR":0.00016959384,"MEAN_MOTION_DOT":0.0000467,"MEAN_MOTION_DDOT":0}]}
